KUIPER-00008            
1 63724U 25088A   25330.05083798 -.00009194  00000+0 -71172-3 0  9993
2 63724  51.8896 199.3876 0010667 117.3886 242.8172 14.99901622 32518
KUIPER-00009            
1 63725U 25088B   25330.50004630  .00013959  00000+0  19447-2 0  9990
2 63725  51.9006 202.8450 0012949 124.9959 115.2468 14.77909138  5349
KUIPER-00010            
1 63726U 25088C   25329.97739665  .00002777  00000+0  38968-3 0  9999
2 63726  51.8989 181.6513 0012397 154.5507 205.6068 14.80306011 32376
KUIPER-00011            
1 63727U 25088D   25330.00748021  .00004241  00000+0  58405-3 0  9998
2 63727  51.8976 189.1414 0014780 127.4873 232.7436 14.79964924 32404
KUIPER-00012            
1 63728U 25088E   25330.50004630  .00013059  00000+0  18305-2 0  9996
2 63728  51.8993 169.9928 0010878 126.0969 326.5112 14.77713661  3617
KUIPER-00013            
1 63729U 25088F   25330.39377870 -.00002282  00000+0 -27012-3 0  9997
2 63729  51.9018 204.8587 0008908  48.9938 311.1794 14.79911930 32277
KUIPER-00014            
1 63730U 25088G   25330.39216885  .00005183  00000+0  70796-3 0  9995
2 63730  51.9003 205.8356 0010064 106.3076 253.8994 14.79941962 32076
KUIPER-00015            
1 63731U 25088H   25329.91431593  .00006046  00000+0  78445-3 0  9995
2 63731  51.8979 219.1695 0011206  94.4555 265.7689 14.81856455 32304
